[{"OBJECT_NAME":"COSMOS 2242","OBJECT_ID":"1993-024A","EPOCH":"2026-03-06T07:01:37.681536","MEAN_MOTION":14.96531551,"ECCENTRICITY":0.00154144,"INCLINATION":82.5152,"RA_OF_ASC_NODE":269.9664,"ARG_OF_PERICENTER":321.0593,"MEAN_ANOMALY":38.9518,"EPHEMERIS_TYPE":0,"CLASSIFICATION_TYPE":"U","NORAD_CAT_ID":22626,"ELEMENT_SET_NO":999,"REV_AT_EPOCH":77988,"BSTAR":0.00021986112,"MEAN_MOTION_DOT":2.53e-5,"MEAN_MOTION_DDOT":0},{"OBJECT_NAME":"SL-16 R/B","OBJECT_ID":"1993-059B","EPOCH":"2026-03-06T05:31:26.391648","MEAN_MOTION":14.17232164,"ECCENTRICITY":0.00187095,"INCLINATION":70.9924,"RA_OF_ASC_NODE":18.4206,"ARG_OF_PERICENTER":221.4934,"MEAN_ANOMALY":138.477,"EPHEMERIS_TYPE":0,"CLASSIFICATION_TYPE":"U","NORAD_CAT_ID":22803,"ELEMENT_SET_NO":999,"REV_AT_EPOCH":67904,"BSTAR":-3.0328729e-5,"MEAN_MOTION_DOT":-1.09e-6,"MEAN_MOTION_DDOT":0},{"OBJECT_NAME":"ARIANE 40 R/B","OBJECT_ID":"1993-061H","EPOCH":"2026-03-06T04:58:08.893632","MEAN_MOTION":14.32858908,"ECCENTRICITY":0.0009619,"INCLINATION":98.4922,"RA_OF_ASC_NODE":134.1632,"ARG_OF_PERICENTER":296.5654,"MEAN_ANOMALY":63.4544,"EPHEMERIS_TYPE":0,"CLASSIFICATION_TYPE":"U","NORAD_CAT_ID":22830,"ELEMENT_SET_NO":999,"REV_AT_EPOCH":69360,"BSTAR":0.00011952846,"MEAN_MOTION_DOT":2.83e-6,"MEAN_MOTION_DDOT":0},{"OBJECT_NAME":"COSMOS 2278","OBJECT_ID":"1994-023A","EPOCH":"2026-03-06T06:34:07.906368","MEAN_MOTION":14.14377342,"ECCENTRICITY":0.00077951,"INCLINATION":71.0547,"RA_OF_ASC_NODE":182.2431,"ARG_OF_PERICENTER":20.0569,"MEAN_ANOMALY":340.0858,"EPHEMERIS_TYPE":0,"CLASSIFICATION_TYPE":"U","NORAD_CAT_ID":23087,"ELEMENT_SET_NO":999,"REV_AT_EPOCH":64432,"BSTAR":0.00015286852,"MEAN_MOTION_DOT":2.45e-6,"MEAN_MOTION_DDOT":0},{"OBJECT_NAME":"SL-16 R/B","OBJECT_ID":"1994-023B","EPOCH":"2026-03-06T07:43:14.751264","MEAN_MOTION":14.15012986,"ECCENTRICITY":0.00056952,"INCLINATION":70.9986,"RA_OF_ASC_NODE":77.9609,"ARG_OF_PERICENTER":288.8916,"MEAN_ANOMALY":71.1589,"EPHEMERIS_TYPE":0,"CLASSIFICATION_TYPE":"U","NORAD_CAT_ID":23088,"ELEMENT_SET_NO":999,"REV_AT_EPOCH":64561,"BSTAR":-6.8676068e-5,"MEAN_MOTION_DOT":-1.81e-6,"MEAN_MOTION_DDOT":0},{"OBJECT_NAME":"SL-16 R/B","OBJECT_ID":"1994-074B","EPOCH":"2026-03-06T01:43:51.289824","MEAN_MOTION":14.79402724,"ECCENTRICITY":0.00055341,"INCLINATION":97.7113,"RA_OF_ASC_NODE":96.0363,"ARG_OF_PERICENTER":224.3544,"MEAN_ANOMALY":189.8306,"EPHEMERIS_TYPE":0,"CLASSIFICATION_TYPE":"U","NORAD_CAT_ID":23343,"ELEMENT_SET_NO":999,"REV_AT_EPOCH":68671,"BSTAR":8.3904168e-5,"MEAN_MOTION_DOT":5.76e-6,"MEAN_MOTION_DDOT":0},{"OBJECT_NAME":"SL-16 R/B","OBJECT_ID":"1994-077B","EPOCH":"2026-03-06T05:36:54.825696","MEAN_MOTION":14.15561499,"ECCENTRICITY":0.00033023,"INCLINATION":70.9852,"RA_OF_ASC_NODE":359.7583,"ARG_OF_PERICENTER":217.0855,"MEAN_ANOMALY":143.004,"EPHEMERIS_TYPE":0,"CLASSIFICATION_TYPE":"U","NORAD_CAT_ID":23405,"ELEMENT_SET_NO":999,"REV_AT_EPOCH":61574,"BSTAR":-7.2812341e-5,"MEAN_MOTION_DOT":-1.9e-6,"MEAN_MOTION_DDOT":0},{"OBJECT_NAME":"ARIANE 40+ R/B","OBJECT_ID":"1995-021B","EPOCH":"2026-03-06T04:39:20.280672","MEAN_MOTION":14.3976926,"ECCENTRICITY":0.00074908,"INCLINATION":98.4504,"RA_OF_ASC_NODE":136.7239,"ARG_OF_PERICENTER":145.9211,"MEAN_ANOMALY":228.3004,"EPHEMERIS_TYPE":0,"CLASSIFICATION_TYPE":"U","NORAD_CAT_ID":23561,"ELEMENT_SET_NO":999,"REV_AT_EPOCH":61874,"BSTAR":0.00012658093,"MEAN_MOTION_DOT":3.53e-6,"MEAN_MOTION_DDOT":0},{"OBJECT_NAME":"SL-16 R/B","OBJECT_ID":"1995-058B","EPOCH":"2026-03-06T07:28:30.757440","MEAN_MOTION":14.15493309,"ECCENTRICITY":0.00109565,"INCLINATION":71.0214,"RA_OF_ASC_NODE":187.3468,"ARG_OF_PERICENTER":131.7197,"MEAN_ANOMALY":228.4865,"EPHEMERIS_TYPE":0,"CLASSIFICATION_TYPE":"U","NORAD_CAT_ID":23705,"ELEMENT_SET_NO":999,"REV_AT_EPOCH":56737,"BSTAR":0.00010045586,"MEAN_MOTION_DOT":1.49e-6,"MEAN_MOTION_DDOT":0},{"OBJECT_NAME":"SL-16 R/B","OBJECT_ID":"1996-051B","EPOCH":"2026-03-06T06:29:59.954784","MEAN_MOTION":14.12414692,"ECCENTRICITY":0.00153708,"INCLINATION":70.7599,"RA_OF_ASC_NODE":182.4746,"ARG_OF_PERICENTER":153.2319,"MEAN_ANOMALY":206.9597,"EPHEMERIS_TYPE":0,"CLASSIFICATION_TYPE":"U","NORAD_CAT_ID":24298,"ELEMENT_SET_NO":999,"REV_AT_EPOCH":52116,"BSTAR":9.4178075e-5,"MEAN_MOTION_DOT":1.25e-6,"MEAN_MOTION_DDOT":0},{"OBJECT_NAME":"ORBVIEW 2 (SEASTAR)","OBJECT_ID":"1997-037A","EPOCH":"2026-03-06T06:45:04.004640","MEAN_MOTION":14.35492135,"ECCENTRICITY":0.00031462,"INCLINATION":98.856,"RA_OF_ASC_NODE":229.5028,"ARG_OF_PERICENTER":78.7692,"MEAN_ANOMALY":281.3846,"EPHEMERIS_TYPE":0,"CLASSIFICATION_TYPE":"U","NORAD_CAT_ID":24883,"ELEMENT_SET_NO":999,"REV_AT_EPOCH":50798,"BSTAR":0.00017626693,"MEAN_MOTION_DOT":4.6e-6,"MEAN_MOTION_DDOT":0},{"OBJECT_NAME":"SL-16 R/B","OBJECT_ID":"1998-043G","EPOCH":"2026-03-05T20:56:33.881568","MEAN_MOTION":14.260486,"ECCENTRICITY":0.00103904,"INCLINATION":98.825,"RA_OF_ASC_NODE":18.2092,"ARG_OF_PERICENTER":30.9002,"MEAN_ANOMALY":329.2787,"EPHEMERIS_TYPE":0,"CLASSIFICATION_TYPE":"U","NORAD_CAT_ID":25400,"ELEMENT_SET_NO":999,"REV_AT_EPOCH":43844,"BSTAR":5.1436513e-5,"MEAN_MOTION_DOT":7.8e-7,"MEAN_MOTION_DDOT":0},{"OBJECT_NAME":"SL-16 R/B","OBJECT_ID":"1998-045B","EPOCH":"2026-03-06T07:46:38.403840","MEAN_MOTION":14.1618911,"ECCENTRICITY":0.00065427,"INCLINATION":71.0115,"RA_OF_ASC_NODE":188.6511,"ARG_OF_PERICENTER":13.1999,"MEAN_ANOMALY":346.9294,"EPHEMERIS_TYPE":0,"CLASSIFICATION_TYPE":"U","NORAD_CAT_ID":25407,"ELEMENT_SET_NO":999,"REV_AT_EPOCH":42662,"BSTAR":-1.3230234e-5,"MEAN_MOTION_DOT":-7.4e-7,"MEAN_MOTION_DDOT":0},{"OBJECT_NAME":"ISS (ZARYA)","OBJECT_ID":"1998-067A","EPOCH":"2026-03-06T05:19:41.493792","MEAN_MOTION":15.48470661,"ECCENTRICITY":0.00081363,"INCLINATION":51.6317,"RA_OF_ASC_NODE":89.5003,"ARG_OF_PERICENTER":162.2758,"MEAN_ANOMALY":197.8515,"EPHEMERIS_TYPE":0,"CLASSIFICATION_TYPE":"U","NORAD_CAT_ID":25544,"ELEMENT_SET_NO":999,"REV_AT_EPOCH":55579,"BSTAR":0.00015844115,"MEAN_MOTION_DOT":8.136e-5,"MEAN_MOTION_DDOT":0},{"OBJECT_NAME":"CZ-4B R/B","OBJECT_ID":"1999-025C","EPOCH":"2026-03-06T01:28:23.350368","MEAN_MOTION":14.18264511,"ECCENTRICITY":0.00369519,"INCLINATION":98.6633,"RA_OF_ASC_NODE":109.4287,"ARG_OF_PERICENTER":357.0932,"MEAN_ANOMALY":32.943,"EPHEMERIS_TYPE":0,"CLASSIFICATION_TYPE":"U","NORAD_CAT_ID":25732,"ELEMENT_SET_NO":999,"REV_AT_EPOCH":38765,"BSTAR":4.851929e-5,"MEAN_MOTION_DOT":5.7e-7,"MEAN_MOTION_DDOT":0},{"OBJECT_NAME":"OKEAN-O","OBJECT_ID":"1999-039A","EPOCH":"2026-03-06T03:17:26.450880","MEAN_MOTION":14.80328179,"ECCENTRICITY":0.00013507,"INCLINATION":97.9448,"RA_OF_ASC_NODE":125.0646,"ARG_OF_PERICENTER":70.0365,"MEAN_ANOMALY":290.0993,"EPHEMERIS_TYPE":0,"CLASSIFICATION_TYPE":"U","NORAD_CAT_ID":25860,"ELEMENT_SET_NO":999,"REV_AT_EPOCH":43386,"BSTAR":0.00011202183,"MEAN_MOTION_DOT":8.02e-6,"MEAN_MOTION_DDOT":0},{"OBJECT_NAME":"SL-16 R/B","OBJECT_ID":"1999-039B","EPOCH":"2026-03-06T02:53:15.824256","MEAN_MOTION":14.81725315,"ECCENTRICITY":0.00134304,"INCLINATION":97.9972,"RA_OF_ASC_NODE":124.2222,"ARG_OF_PERICENTER":268.9169,"MEAN_ANOMALY":91.0505,"EPHEMERIS_TYPE":0,"CLASSIFICATION_TYPE":"U","NORAD_CAT_ID":25861,"ELEMENT_SET_NO":999,"REV_AT_EPOCH":43633,"BSTAR":9.4227767e-5,"MEAN_MOTION_DOT":6.89e-6,"MEAN_MOTION_DDOT":0}]
